DMSP 5D-3 F16 (USA 172) 
1 28054U 03048A   26140.30064969 -.00000044  00000+0  81863-6 0  9994
2 28054  98.9906 163.9425 0006283 218.7706 234.2486 14.14479723165544
METEOSAT-9 (MSG-2)      
1 28912U 05049B   26139.86641920  .00000119  00000+0  00000+0 0  9996
2 28912   9.3000  54.4428 0001501 307.0308 233.6158  1.00271430  6711
DMSP 5D-3 F17 (USA 191) 
1 29522U 06050A   26140.30937508  .00000009  00000+0  26919-4 0  9998
2 29522  98.7384 147.4498 0010978 131.0155 229.1969 14.14987846  8489
FENGYUN 3A              
1 32958U 08026A   26140.27673072  .00000041  00000+0  39831-4 0  9992
2 32958  98.6875  81.6341 0008160 201.8131 158.2699 14.19564578931447
GOES 14                 
1 35491U 09033A   26140.19655666 -.00000169  00000+0  00000+0 0  9999
2 35491   1.6198  83.3511 0001616 337.4970  45.3794  1.00117062  6317
DMSP 5D-3 F18 (USA 210) 
1 35951U 09057A   26140.27883408  .00000210  00000+0  13203-3 0  9991
2 35951  98.9028 121.1111 0010603 336.5560  23.5128 14.14879691855646
EWS-G2 (GOES 15)        
1 36411U 10008A   26140.17783657  .00000017  00000+0  00000+0 0  9997
2 36411   1.2036  83.3130 0004663  32.3023 249.6263  1.00273621 59355
COMS 1                  
1 36744U 10032A   26139.73655804 -.00000347  00000+0  00000+0 0  9992
2 36744   4.7361  75.7224 0000796 336.5397 218.4491  1.00270635 50808
FENGYUN 3B              
1 37214U 10059A   26140.30506334 -.00000093  00000+0 -24635-4 0  9996
2 37214  98.9633 186.1982 0020909 265.7666 185.5694 14.14834121803480
SUOMI NPP               
1 37849U 11061A   26140.28702829  .00000058  00000+0  48334-4 0  9999
2 37849  98.7945  81.3557 0002717  61.6609 298.4841 14.19510878754487
METEOSAT-10 (MSG-3)     
1 38552U 12035B   26140.09403142 -.00000011  00000+0  00000+0 0  9991
2 38552   4.6072  61.1421 0001771 318.1259 252.3888  1.00271756 50576
METOP-B                 
1 38771U 12049A   26140.24418801  .00000061  00000+0  47811-4 0  9994
2 38771  98.6522 192.2982 0003433  78.4368 281.7195 14.21424146709291
INSAT-3D                
1 39216U 13038B   26140.26221975 -.00000343  00000+0  00000+0 0  9992
2 39216   1.8556  82.8705 0001028 302.5023  76.4674  1.00270739 46805
FENGYUN 3C              
1 39260U 13052A   26140.26904139  .00000041  00000+0  41894-4 0  9992
2 39260  98.4966 115.4289 0015836 102.5893 257.7054 14.15747742654619
METEOR-M 2              
1 40069U 14037A   26140.27105623  .00000465  00000+0  23202-3 0  9999
2 40069  98.5104 117.0016 0006829 111.9790 248.2114 14.21454244615350
HIMAWARI-8              
1 40267U 14060A   26140.26447309 -.00000280  00000+0  00000+0 0  9997
2 40267   0.0295  64.0491 0000687  12.5739  37.1718  1.00271756 42483
FENGYUN 2G              
1 40367U 14090A   26139.82853536 -.00000303  00000+0  00000+0 0  9990
2 40367   5.5687  73.1459 0003166 141.7213  60.3751  1.00262162 41712
METEOSAT-11 (MSG-4)     
1 40732U 15034A   26140.23847297  .00000057  00000+0  00000+0 0  9994
2 40732   3.1324  71.2592 0001734 357.5971 264.1386  1.00271551  6939
ELEKTRO-L 2             
1 41105U 15074A   26140.16240983 -.00000122  00000+0  00000+0 0  9998
2 41105   6.6248  70.8567 0001521 255.9326 314.9986  1.00271606 38221
INSAT-3DR               
1 41752U 16054A   26140.10867816 -.00000081  00000+0  00000+0 0  9993
2 41752   0.1026  87.5912 0011047 190.3690  72.9373  1.00271612 35530
HIMAWARI-9              
1 41836U 16064A   26140.26447309 -.00000279  00000+0  00000+0 0  9994
2 41836   0.0320 174.9923 0000858 267.7438  31.1630  1.00271013 34930
GOES 16                 
1 41866U 16071A   26140.19142014 -.00000095  00000+0  00000+0 0  9998
2 41866   0.2724  85.6255 0000927 256.0838 220.3750  1.00271890 34827
FENGYUN 4A              
1 41882U 16077A   26140.26109308 -.00000361  00000+0  00000+0 0  9995
2 41882   2.2529  80.5544 0008574 146.2784 228.7719  1.00266533 34657
CYGFM05                 
1 41884U 16078A   26140.20635324  .00017290  00000+0  24637-3 0  9998
2 41884  34.9574  85.6866 0008981 251.2702 108.7047 15.55327650524392
CYGFM04                 
1 41885U 16078B   26140.13281448  .00021544  00000+0  25916-3 0  9993
2 41885  34.9336  55.2223 0008401 287.9547  72.0262 15.59804117524618
CYGFM02                 
1 41886U 16078C   26140.11963727  .00024702  00000+0  26939-3 0  9994
2 41886  34.9418  50.6072 0009541 290.0669  69.9029 15.62308151524771
CYGFM01                 
1 41887U 16078D   26140.20687800  .00017848  00000+0  24840-3 0  9992
2 41887  34.9404  86.9613 0008641 246.2405 113.7413 15.55960182524349
CYGFM08                 
1 41888U 16078E   26140.21253738  .00020841  00000+0  26404-3 0  9998
2 41888  34.9441  67.2114 0010280 272.8555  87.0993 15.58426187524602
CYGFM07                 
1 41890U 16078G   26140.17345137  .00021046  00000+0  26586-3 0  9990
2 41890  34.9458  55.8373 0008789 287.5281  72.4483 15.58520834524621
CYGFM03                 
1 41891U 16078H   26140.14435994  .00020892  00000+0  26399-3 0  9999
2 41891  34.9412  57.9772 0008140 277.2402  82.7397 15.58519606524599
FENGYUN 3D              
1 43010U 17072A   26140.30975367  .00000136  00000+0  86257-4 0  9999
2 43010  99.0118 114.2317 0002426 108.7556 251.3883 14.19733595441032
NOAA 20 (JPSS-1)        
1 43013U 17073A   26140.30013441  .00000056  00000+0  47326-4 0  9994
2 43013  98.7764  80.0123 0001269  43.4291 316.6985 14.19505983440516
GOES 17                 
1 43226U 18022A   26140.18586560 -.00000187  00000+0  00000+0 0  9997
2 43226   0.8683  86.0778 0000384 318.2948 170.9006  1.00271330 30148
FENGYUN 2H              
1 43491U 18050A   26140.10971817 -.00000135  00000+0  00000+0 0  9990
2 43491   2.9599  79.3773 0001783 148.8738 128.4517  1.00272076 29151
METOP-C                 
1 43689U 18087A   26140.26494395  .00000063  00000+0  48584-4 0  9990
2 43689  98.6658 200.3764 0000532 148.2038 211.9171 14.21503646390862
GEO-KOMPSAT-2A          
1 43823U 18100A   26139.61096900 -.00000346  00000+0  00000+0 0  9994
2 43823   0.0631  97.0093 0001920 329.5548 158.9388  1.00271191 27348
METEOR-M2 2             
1 44387U 19038A   26140.21637233  .00000451  00000+0  21489-3 0  9993
2 44387  98.9138 127.0914 0002396  91.1804 268.9649 14.24358795357314
ARKTIKA-M 1             
1 47719U 21016A   26139.08335878 -.00000154  00000+0  00000+0 0  9990
2 47719  63.2280  61.8651 7277473 269.7896  14.7864  2.00632267 38203
FENGYUN 3E              
1 49008U 21062A   26140.29676203  .00000049  00000+0  44005-4 0  9999
2 49008  98.7492 144.0162 0002155 133.7736 226.3619 14.19901322252621
GOES 18                 
1 51850U 22021A   26139.99554729  .00000093  00000+0  00000+0 0  9997
2 51850   0.0435 108.7183 0000193  15.5875 334.7487  1.00270562  6314
NOAA 21 (JPSS-2)        
1 54234U 22150A   26140.26357051  .00000025  00000+0  32334-4 0  9995
2 54234  98.7052  79.5232 0000547 298.0909  62.0212 14.19559763182589
METEOSAT-12 (MTG-I1)    
1 54743U 22170C   26140.21475600 -.00000012  00000+0  00000+0 0  9995
2 54743   0.7519  26.1476 0000712 341.5984 307.1112  1.00273178 12699
TIANMU-1 03             
1 55973U 23039A   26140.29830351  .00011093  00000+0  22604-3 0  9990
2 55973  97.5230 313.1957 0003260 171.2979 188.8327 15.46414174176528
TIANMU-1 04             
1 55974U 23039B   26140.29827147  .00011459  00000+0  22890-3 0  9993
2 55974  97.5166 312.3483 0003947 171.4622 188.6695 15.46981207176534
TIANMU-1 05             
1 55975U 23039C   26140.27777730  .00011285  00000+0  23046-3 0  9995
2 55975  97.5212 312.7995 0002506 191.1263 168.9931 15.46346882176504
TIANMU-1 06             
1 55976U 23039D   26140.30003193  .00011321  00000+0  22685-3 0  9994
2 55976  97.5219 313.4308 0002960 186.0328 174.0886 15.46898136176531
FENGYUN 3G              
1 56232U 23055A   26140.25488999  .00018843  00000+0  29856-3 0  9996
2 56232  49.9915 130.1292 0005803  67.4990 292.6591 15.53376610175662
METEOR-M2 3             
1 57166U 23091A   26140.27457787 -.00000016  00000+0  11805-4 0  9996
2 57166  98.6097 195.8211 0002873 243.2237 116.8648 14.24044119150545
TIANMU-1 07             
1 57399U 23101A   26140.23220061  .00004305  00000+0  15341-3 0  9997
2 57399  97.2605 191.5474 0001717 187.8702 172.2512 15.29445292157370
TIANMU-1 08             
1 57400U 23101B   26140.32989882  .00003845  00000+0  13690-3 0  9996
2 57400  97.2593 191.4172 0003486 187.4907 172.6282 15.29532763157380
TIANMU-1 09             
1 57401U 23101C   26140.24823287  .00004308  00000+0  15336-3 0  9998
2 57401  97.2552 190.7680 0001971 205.4401 154.6743 15.29471421157373
TIANMU-1 10             
1 57402U 23101D   26140.28075646  .00004403  00000+0  15682-3 0  9991
2 57402  97.2630 191.8217 0003538 213.5240 146.5777 15.29442259157375
FENGYUN 3F              
1 57490U 23111A   26140.28130803  .00000026  00000+0  32584-4 0  9994
2 57490  98.6841 210.8083 0001366 112.1701 247.9620 14.19933632144903
ARKTIKA-M 2             
1 58584U 23198A   26138.84987002  .00000166  00000+0  00000+0 0  9992
2 58584  63.1901 157.6300 6893056 267.5473  18.8003  2.00594140 17738
TIANMU-1 11             
1 58645U 23205A   26140.33130606  .00003666  00000+0  14229-3 0  9996
2 58645  97.3459 162.3308 0010901 101.8885 258.3577 15.26670811133272
TIANMU-1 12             
1 58646U 23205B   26140.30093456  .00003748  00000+0  14570-3 0  9995
2 58646  97.3448 162.0625 0009168  88.5807 271.6482 15.26625367133255
TIANMU-1 13             
1 58647U 23205C   26140.33047958  .00003851  00000+0  15027-3 0  9998
2 58647  97.3475 162.3599 0008837  72.2139 288.0063 15.26481709133256
TIANMU-1 14             
1 58648U 23205D   26140.31650108  .00003840  00000+0  14961-3 0  9998
2 58648  97.3411 161.5498 0009698  75.8286 284.4030 15.26526530133250
TIANMU-1 19             
1 58660U 23208A   26140.31960622  .00005795  00000+0  19542-3 0  9991
2 58660  97.4478 256.4919 0006119  66.2822 293.9061 15.31098879133069
TIANMU-1 20             
1 58661U 23208B   26140.31376546  .00005705  00000+0  18536-3 0  9991
2 58661  97.4420 257.0925 0008315  70.4073 289.8066 15.32290430133153
TIANMU-1 21             
1 58662U 23208C   26140.27811784  .00007230  00000+0  21844-3 0  9996
2 58662  97.4478 259.6187 0008239  64.7085 295.5011 15.34519554133280
TIANMU-1 22             
1 58663U 23208D   26140.29231586  .00005266  00000+0  18050-3 0  9997
2 58663  97.4475 256.4234 0005191  86.6630 273.5205 15.30616541133066
TIANMU-1 15             
1 58700U 24004A   26140.31146359  .00003878  00000+0  15040-3 0  9993
2 58700  97.4673 326.5026 0008603  89.0556 271.1668 15.26698431131520
TIANMU-1 16             
1 58701U 24004B   26140.29569432  .00003688  00000+0  14437-3 0  9990
2 58701  97.4620 325.7552 0007600  91.9306 268.2803 15.26425588131528
TIANMU-1 17             
1 58702U 24004C   26140.28114529  .00003780  00000+0  14792-3 0  9990
2 58702  97.4647 326.2151 0007141  96.0922 264.1131 15.26426564131512
TIANMU-1 18             
1 58703U 24004D   26140.26227292  .00003766  00000+0  14627-3 0  9992
2 58703  97.4665 326.4343 0005718  92.3023 267.8870 15.26688740131513
INSAT-3DS               
1 58990U 24033A   26140.11023817 -.00000159  00000+0  00000+0 0  9993
2 58990   0.0446 254.7894 0001266 155.8453 308.8858  1.00269963 46783
METEOR-M2 4             
1 59051U 24039A   26140.25761622 -.00000001  00000+0  19075-4 0  9999
2 59051  98.6996  99.9096 0005952 247.9908 112.0638 14.22426300115294
GOES 19                 
1 60133U 24119A   26140.21814420 -.00000252  00000+0  00000+0 0  9993
2 60133   0.0429 112.7884 0000307  22.4603 105.9755  1.00271060  6687
FENGYUN 3H              
1 65815U 25219A   26140.27731227  .00000028  00000+0  33824-4 0  9991
2 65815  98.6760  81.5912 0001526  98.7649 261.3701 14.19914786 33428
